CUTE-1 (CO-55)          
1 27844U 03031E   26180.96278102  .00000311  00000+0  15340-3 0  9994
2 27844  98.6736 189.3610 0010300 142.4898 217.7002 14.24343456193495
CUBESAT XI-IV (CO-57)   
1 27848U 03031J   26180.95765288  .00000265  00000+0  13524-3 0  9993
2 27848  98.6768 189.0585 0009785 160.0224 200.1339 14.23627529193197
CUBESAT XI-V            
1 28895U 05043F   26181.38022833  .00001474  00000+0  23930-3 0  9996
2 28895  98.2997 337.2799 0014555 159.1785 201.0018 14.72666866103697
CUTE-1.7+APD II (CO-65) 
1 32785U 08021C   26181.77153531  .00005722  00000+0  36012-3 0  9996
2 32785  97.8276 163.4738 0008354 354.3773   5.7360 15.09578189987244
CANX-2                  
1 32790U 08021H   26180.91514377  .00003597  00000+0  25299-3 0  9999
2 32790  97.8632 160.9411 0010378  11.1913 348.9542 15.05705012986728
SEEDS II (CO-66)        
1 32791U 08021J   26181.45168146  .00016684  00000+0  52225-3 0  9999
2 32791  97.7515 179.9864 0001143 194.0088 166.1122 15.33195659989328
SWISSCUBE               
1 35932U 09051B   26180.68896063  .00000990  00000+0  20492-3 0  9997
2 35932  98.4026  88.7947 0006868 162.6436 197.5001 14.62504487890980
BEESAT-1                
1 35933U 09051C   26181.52633795  .00000828  00000+0  17586-3 0  9993
2 35933  98.3953  89.2540 0005133 171.1167 189.0125 14.61741181891138
ITUPSAT1                
1 35935U 09051E   26180.70676922  .00000759  00000+0  16668-3 0  9996
2 35935  98.4038  87.6006 0006953 190.2945 169.8114 14.60458458890562
TISAT 1                 
1 36799U 10035E   26181.83384131  .00023408  00000+0  75355-3 0  9996
2 36799  98.0710 129.5985 0003223 145.2416 214.9035 15.32224933869790
AEROCUBE 4.5A           
1 38767U 12048K   26180.81601320  .02026816  74244-5  11805-2 0  9992
2 38767  64.6148 340.0554 0018867 267.4936  92.4076 16.17962819374686
STRAND-1                
1 39090U 13009E   26181.49298304  .00000291  00000+0  11203-3 0  9992
2 39090  98.3924   1.4000 0008490 183.0829 177.0307 14.37171160698970
BRITE-AUSTRIA           
1 39091U 13009F   26181.44196622  .00000177  00000+0  74807-4 0  9991
2 39091  98.3999   0.5499 0009825 194.0076 166.0839 14.36547215698957
NEE-01 PEGASO           
1 39151U 13018B   26181.39552175  .00002528  00000+0  24426-3 0  9994
2 39151  98.1237 325.9834 0013636 118.7940 241.4650 14.93723897712672
POPACS 2                
1 39269U 13055E   26181.19306930  .00014049  00000+0  23497-3 0  9997
2 39269  80.9915 129.3032 0416257 152.0121 210.4183 14.91555130665156
POPACS 3                
1 39270U 13055F   26181.51736702  .00010184  00000+0  24028-3 0  9996
2 39270  80.9995 214.7325 0550745  29.4231 333.6798 14.56368469640498
ZACUBE-1 (TSHEPISOSAT)  
1 39417U 13066B   26181.47149207  .00002774  00000+0  21666-3 0  9995
2 39417  97.8044 143.8762 0042662 202.7803 157.1529 15.01258663682723
WNISAT-1                
1 39423U 13066H   26181.38727997  .00001266  00000+0  23811-3 0  9999
2 39423  97.7217 329.6076 0162814 189.8365 169.9637 14.58089217668658
TRITON-1                
1 39427U 13066M   26181.80177300  .00001393  00000+0  17168-3 0  9996
2 39427  97.8244  91.2992 0089394 188.9658 170.9963 14.81748697676101
GOMX-1                  
1 39430U 13066Q   26181.80435705  .00001686  00000+0  25754-3 0  9991
2 39430  97.6472  21.4077 0129520  34.2848 326.6634 14.69505340671916
CUBEBUG-2 (LO-74)       
1 39440U 13066AA  26181.79482017  .00004655  00000+0  43003-3 0  9994
2 39440  97.8910 130.8314 0056909 344.0423  15.9001 14.93871723679020
NEE-02 KRYSAOR          
1 39441U 13066AB  26181.80508646  .00002498  00000+0  27637-3 0  9992
2 39441  97.8896 120.9230 0066766  26.4051 334.0541 14.86680801678223
FUNCUBE-1 (AO-73)       
1 39444U 13066AE  26181.84406837  .00007343  00000+0  45304-3 0  9993
2 39444  97.8284 153.5766 0037140 154.4436 205.8639 15.09653397681724
UWE-3                   
1 39446U 13066AG  26181.85061509  .00003219  00000+0  27807-3 0  9995
2 39446  97.8711 138.0184 0047038 274.5118  85.0730 14.97126889679624
BRITE-CA1 (TORONTO)     
1 40020U 14033L   26181.35487269  .00000937  00000+0  14834-3 0  9990
2 40020  97.9755 310.0412 0077486 234.1487 125.2508 14.72697519644156
DUCHIFAT-1              
1 40021U 14033M   26181.63277855  .00122192  00000+0  11160-2 0  9996
2 40021  98.0444 242.7107 0000381  95.0566 265.0736 15.67461809657851
NANOSATC-BR1            
1 40024U 14033Q   26180.55297817  .00015457  00000+0  50485-3 0  9998
2 40024  98.0715 214.0382 0005163 133.3825 226.7845 15.31847627655871
QB50P1                  
1 40025U 14033R   26181.26463463  .00007596  00000+0  37202-3 0  9997
2 40025  98.0957 193.3288 0009192 170.0607 190.0809 15.18453201655011
QB50P2                  
1 40032U 14033Y   26180.97746561  .00007152  00000+0  38307-3 0  9990
2 40032  98.0748 178.6550 0009096 125.6149 234.5930 15.15322126654606
PERSEUS-M2              
1 40037U 14033AD  26181.77908691  .00000440  00000+0  45191-4 0  9991
2 40037  97.9970 132.5977 0010309 254.4675 105.5407 14.95547399652817
